#dP2018  9  4  0  0  0.00000000      96 __u+U ITR00 FIT  IAC
## 2017 172800.00000000   900.00000000 58365 0.0000000000000
+   82   C02C03C06C07C08C09C10C11C12C13C14E01E02E03E04E05E07
+        E08E09E11E12E14E18E19E24E26E30G01G02G03G05G06G07G08
+        G09G10G11G12G13G14G15G16G17G18G19G20G21G22G23G24G25
+        G26G27G28G29G30G31G32J01R01R02R03R04R05R07R08R09R10
+        R11R13R14R15R16R17R18R19R20R21R22R23R24R26  0  0  0
++        12 14 10 12 10  9 10 10  9  9 10  8  7  7  9  7  7
++         7  7  7  7  8  7  8  7  8  7  4  4  4  4  4  4  4
++         4  4  4  4  4  4  4  4  4  4  4  4  4  4  4  4  4
++         4  4  4  4  4  4  4 13  6  6  6  6  6  6  6  6  6
++         6  6  6  6  6  6  6  6  6  6  6  6  6  9  0  0  0
%c M  cc GPS ccc cccc cccc cccc cccc ccccc ccccc ccccc ccccc
%c cc cc ccc ccc cccc cccc cccc cccc ccccc ccccc ccccc ccccc
%f  0.0000000  0.000000000  0.00000000000  0.000000000000000
%f  0.0000000  0.000000000  0.00000000000  0.000000000000000
%i    0    0    0    0      0      0      0      0         0
%i    0    0    0    0      0      0      0      0         0
/* INFORMATION & ANALYSIS CENTER (IAC) OF MCC   (RAPID DATA)
/* S/V CLOCKS ARE ALIGNED TO GPS & GLONASS TIME RESPECTIVELY
/* USING THE BROADCAST EPHEMERIS                            
/* PCV:IGS14_2000 OL/AL:FES2004  NONE     YN ORB:CoN CLK:CoN
*  2018 09 04 17 45  0.00000000
PC02   4368.302199  41918.244597  -1423.776326     68.874747
PC03 -14799.941101  39459.178317   -408.867656    238.011161
PC06 -19454.861884  37170.001919   1583.577657    272.667129
PC07  -7167.911166  29718.683995  29371.660751     -6.645392
PC08 -21815.827297  19413.124641 -30460.586691    512.404797
PC09 -10338.335526  37776.331779  15378.637955     85.503208
PC10   4782.840245  36196.339329  21563.186862    -46.228571
PC11  11049.194132 -19427.529207  16710.569290   -665.677752
PC12  23977.848096 -14159.577122   -530.340622    592.152081
PC13  -5604.262200  23496.501033 -34584.190921   -261.017300
PC14   4456.780412 -26562.178419   7454.419794    331.668779
PE01 -22748.033587 -12834.598958  13919.472648   -427.681911
PE02  22750.564802  12822.744522 -13933.131809     26.182897
PE03  16873.729767   3615.958805  24053.742501    -73.386191
PE04 -18160.309435  17326.036864 -15683.298575   -110.483640
PE05   5692.087008  22517.508317  18357.169868    199.560382
PE07   8796.891448 -28190.818946  -1924.798765    -32.342597
PE08  17913.308633 -17523.449901  15751.609082   6509.503731
PE09  -8550.885469  28282.003756   1937.038604   6686.293385
PE11  -9541.032577  17004.906629 -22276.781219   4581.808792
PE12 -26534.029910  10425.155421  -7945.361390   4979.907183
PE14  26005.985132  -9930.769604 -13036.056077   6524.694650
PE18 -19055.811083  18407.740692   -801.429037   5931.478691
PE19 -16046.601576  -5624.668388 -24221.911446    -12.558313
PE24    510.831473  21464.431817  20370.295271   6510.711957
PE26 -12422.068102 -13627.743972  23153.255688   5515.338838
PE30  15744.804125  -6101.619937 -24314.023215   5540.036577
PG01  18892.313474  13636.101698 -13193.266810    -84.226549
PG02   1906.954386 -15586.752947  21996.313748      7.909927
PG03  13526.200556  20685.016444   9787.828530    131.639426
PG05  -1571.774426 -24824.709615   8893.955977     -2.356719
PG06  18618.400752  -7899.620763  17255.806002    367.871949
PG07  26149.570117   5853.993492   -771.931710    129.904001
PG08    714.756903  18550.886338 -18888.962641   -113.998937
PG09  17811.944629   1099.697565  19641.345566    508.152977
PG10 -13429.340346   7507.193495 -21594.794495    183.785902
PG11  14219.975779  12397.091257 -19189.905782   -720.327871
PG12  -9330.218221 -24402.734476   5095.679599    309.280458
PG13   8170.075907 -20437.887499 -14962.576214    -89.794461
PG14 -18284.379337  19033.048888   2225.047828    -97.433844
PG15  -6612.193879 -16114.856226 -20184.269133   -346.780553
PG16  -1704.656164  24111.202513  10354.800822     10.533981
PG17  21183.607395 -14012.653351  -7152.951564    -59.609504
PG18  10224.893902  15829.508027 -19255.486492     53.499375
PG19  19014.402731 -18530.973706   1830.492269   -405.701850
PG20 -17427.859768  -2511.754429 -20032.136129    515.277679
PG21 -26120.744618  -2050.294017  -3376.533885   -342.154548
PG22  10948.441208  24134.502470   2229.865780   -509.571619
PG23  11845.884734  10354.669995  21700.824331   -211.523246
PG24 -15467.308888 -14730.350325 -16090.544733    -54.920176
PG25 -15768.174230 -13892.413936  16198.032489   -642.026941
PG26  -7465.432107  17970.805835  18008.826144    -30.463706
PG27  -9502.970119  21845.768683 -11548.627298    348.071085
PG28  13851.280517  -4001.338935 -21689.063096    742.474229
PG29 -16660.328850  -2878.414452  20457.579492    382.883193
PG30  24116.151647  -1681.782143 -11178.509527     28.535616
PG31 -17235.784187   8793.657977  18410.684631     95.874021
PG32 -20543.941203  15199.573657  -7018.471429   -433.160780
PJ01 -16183.812721  32069.919553 -17491.059744   -117.163285
PR01   1499.575972  23366.330865  10143.275186     31.514002
PR02   9641.439869   7113.929915  22550.399326    328.077364
PR03  11358.662942 -12015.866707  19478.239385    142.377007
PR04   6162.244452 -24325.527048   4640.070176    274.988516
PR05  -2186.397463 -22356.398287 -12094.665732      9.848461
PR07 -11282.323916  12414.158707 -19168.107417    -46.334369
PR08  -6449.658905  24109.697822  -5211.734968     21.460561
PR09 -20828.013577 -12409.252500   7830.050633     26.704020
PR10 -15057.339863   -268.797153  20546.573616     31.053359
PR11   -359.200192  13277.202739  21808.388205    -39.831136
PR13  21010.934448  12431.945841  -7430.501308    -14.320011
PR14  15341.827337    171.549121 -20367.040645     30.708127
PR15   4112.468940 -10354.893097 -22939.772236    -15.793445
PR16 -14138.211252 -18124.526303 -11185.311051    100.916137
PR17  23914.438523  -8810.186243   -192.538334    161.573403
PR18  15109.875757 -13277.423338  15728.142943     25.271856
PR19  -2018.786310 -10388.393170  23202.594190    -58.977679
PR20 -19379.388355  -1140.474506  16522.960039   -351.083343
PR21 -23875.426084   9023.313888   -239.490432     -1.627429
PR22 -13118.808564  13225.169711 -17365.459522    -61.147640
PR23   6625.434698   8701.209157 -23057.408835    176.206020
PR24  20143.477709    144.441996 -15684.539173   -170.963945
PR26 -18622.126996  -1506.129792  17387.531937     45.350247
EOF
